{
    "links": {
        "self": "http://www.neowsapp.com/rest/v1/neo/54006013?api_key=iIulBulltgU6a56xZRHN4H3l9WmuAYTsLGpBGhQ2"
    },
    "id": "54006013",
    "neo_reference_id": "54006013",
    "name": "(2020 DJ4)",
    "designation": "2020 DJ4",
    "nasa_jpl_url": "http://ssd.jpl.nasa.gov/sbdb.cgi?sstr=54006013",
    "absolute_magnitude_h": 22.889,
    "estimated_diameter": {
        "kilometers": {
            "estimated_diameter_min": 0.0702675767,
            "estimated_diameter_max": 0.1571230782
        },
        "meters": {
            "estimated_diameter_min": 70.2675767347,
            "estimated_diameter_max": 157.1230781929
        },
        "miles": {
            "estimated_diameter_min": 0.0436622344,
            "estimated_diameter_max": 0.0976317242
        },
        "feet": {
            "estimated_diameter_min": 230.5366764542,
            "estimated_diameter_max": 515.4956798584
        }
    },
    "is_potentially_hazardous_asteroid": false,
    "close_approach_data": [
        {
            "close_approach_date": "2013-03-10",
            "close_approach_date_full": "2013-Mar-10 14:47",
            "epoch_date_close_approach": 1362926820000,
            "relative_velocity": {
                "kilometers_per_second": "16.4807234285",
                "kilometers_per_hour": "59330.6043427624",
                "miles_per_hour": "36865.7302373125"
            },
            "miss_distance": {
                "astronomical": "0.3243542285",
                "lunar": "126.1737948865",
                "kilometers": "48522701.709093295",
                "miles": "30150608.739725671"
            },
            "orbiting_body": "Earth"
        },
        {
            "close_approach_date": "2020-03-22",
            "close_approach_date_full": "2020-Mar-22 21:09",
            "epoch_date_close_approach": 1584911340000,
            "relative_velocity": {
                "kilometers_per_second": "7.8161330113",
                "kilometers_per_hour": "28138.0788406751",
                "miles_per_hour": "17483.9079329739"
            },
            "miss_distance": {
                "astronomical": "0.2406507086",
                "lunar": "93.6131256454",
                "kilometers": "36000833.420550682",
                "miles": "22369880.5823841316"
            },
            "orbiting_body": "Earth"
        },
        {
            "close_approach_date": "2020-06-15",
            "close_approach_date_full": "2020-Jun-15 12:55",
            "epoch_date_close_approach": 1592225700000,
            "relative_velocity": {
                "kilometers_per_second": "7.9180230888",
                "kilometers_per_hour": "28504.8831195084",
                "miles_per_hour": "17711.8258472301"
            },
            "miss_distance": {
                "astronomical": "0.2610687917",
                "lunar": "101.5557599713",
                "kilometers": "39055335.161793679",
                "miles": "24267859.9539196102"
            },
            "orbiting_body": "Earth"
        },
        {
            "close_approach_date": "2027-07-08",
            "close_approach_date_full": "2027-Jul-08 09:46",
            "epoch_date_close_approach": 1815039960000,
            "relative_velocity": {
                "kilometers_per_second": "19.3951822302",
                "kilometers_per_hour": "69822.6560285825",
                "miles_per_hour": "43385.0831306489"
            },
            "miss_distance": {
                "astronomical": "0.4847575731",
                "lunar": "188.5706959359",
                "kilometers": "72518700.402129297",
                "miles": "45061030.9221144186"
            },
            "orbiting_body": "Earth"
        }
    ],
    "orbital_data": {
        "orbit_id": "5",
        "orbit_determination_date": "2020-03-14 05:58:28",
        "first_observation_date": "2020-02-27",
        "last_observation_date": "2020-03-13",
        "data_arc_in_days": 15,
        "observations_used": 43,
        "orbit_uncertainty": "7",
        "minimum_orbit_intersection": ".185109",
        "jupiter_tisserand_invariant": "3.964",
        "epoch_osculation": "2459000.5",
        "eccentricity": ".4188047227942833",
        "semi_major_axis": "1.770265339987757",
        "inclination": "14.62637544630944",
        "ascending_node_longitude": "327.6716805118563",
        "orbital_period": "860.31199166363",
        "perihelion_distance": "1.028869855001857",
        "perihelion_argument": "254.513423998472",
        "aphelion_distance": "2.511660824973658",
        "perihelion_time": "2458976.322934110919",
        "mean_anomaly": "10.11696199100795",
        "mean_motion": ".418452844419673",
        "equinox": "J2000",
        "orbit_class": {
            "orbit_class_type": "AMO",
            "orbit_class_description": "Near-Earth asteroid orbits similar to that of 1221 Amor",
            "orbit_class_range": "1.017 AU < q (perihelion) < 1.3 AU"
        }
    },
    "is_sentry_object": false
}